[{"OBJECT_NAME":"STARLINK-31285","OBJECT_ID":"2024-049P","EPOCH":"2026-03-08T14:32:16.578816","MEAN_MOTION":15.27592029,"ECCENTRICITY":0.00018928,"INCLINATION":42.9972,"RA_OF_ASC_NODE":149.3678,"ARG_OF_PERICENTER":158.6691,"MEAN_ANOMALY":201.424,"EPHEMERIS_TYPE":0,"CLASSIFICATION_TYPE":"U","NORAD_CAT_ID":59244,"ELEMENT_SET_NO":999,"REV_AT_EPOCH":11223,"BSTAR":-8.1423415e-5,"MEAN_MOTION_DOT":-2.503e-5,"MEAN_MOTION_DDOT":0},{"OBJECT_NAME":"CZ-6A DEB","OBJECT_ID":"2022-151DE","EPOCH":"2026-03-09T09:45:43.657920","MEAN_MOTION":15.34292219,"ECCENTRICITY":0.00393756,"INCLINATION":99.0022,"RA_OF_ASC_NODE":218.5596,"ARG_OF_PERICENTER":192.6197,"MEAN_ANOMALY":167.4059,"EPHEMERIS_TYPE":0,"CLASSIFICATION_TYPE":"U","NORAD_CAT_ID":54359,"ELEMENT_SET_NO":999,"REV_AT_EPOCH":10560,"BSTAR":0.0065240017,"MEAN_MOTION_DOT":0.00228186,"MEAN_MOTION_DDOT":0}]
